GLOBALSTAR M084         
1 38040U 11080A   23353.10751775 -.00000075  00000+0  16293-3 0  9990
2 38040  52.0016 270.9419 0000663  36.0812  69.3083 12.62269350553983
GLOBALSTAR M080         
1 38041U 11080B   23353.08114715 -.00000080  00000+0  13411-3 0  9990
2 38041  52.0064 272.4371 0000431  37.7493  67.5804 12.62267393553961
GLOBALSTAR M082         
1 38042U 11080C   23352.85088851 -.00000084  00000+0  10823-3 0  9994
2 38042  52.0060 228.5249 0001648  74.1025   5.5771 12.62264488554509
GLOBALSTAR M092         
1 38043U 11080D   23353.14220932 -.00000090  00000+0  78354-4 0  9997
2 38043  52.0102 317.9857 0000483  10.2087  73.1520 12.62247630553209
GLOBALSTAR M090         
1 38044U 11080E   23352.96152184 -.00000093  00000+0  59731-4 0  9991
2 38044  51.9870 222.6997 0001325  77.2803  26.0292 12.62264787554635
GLOBALSTAR M086         
1 38045U 11080F   23352.82430344 -.00000093  00000+0  61058-4 0  9999
2 38045  51.9879 223.6277 0001124 127.3214 311.2196 12.62265736554566
GLOBALSTAR M097         
1 39072U 13005A   23352.59575216 -.00000105  00000+0 -43087-5 0  9999
2 39072  52.0028 138.3106 0001332 112.2162 247.8846 12.62273604501789
GLOBALSTAR M093         
1 39073U 13005B   23352.56919762 -.00000094  00000+0  53466-4 0  9992
2 39073  51.9793 132.5688 0001455 118.2767 241.8246 12.62278318501731
